XRISM                   
1 57800U 23137A   24059.92997007  .00004333  00000+0  33562-3 0  9993
2 57800  31.0046 347.3008 0010158 208.7861 151.2215 14.99760328 26181
